{"epoch":1784762836,"count":18316,"objects":[{"id":"56725","name":"ONEWEB-0721","type":"PAYLOAD","l1":"1 56725U 23068R   26203.39703223 -.00000047  00000-0 -14826-3 0  9993","l2":"2 56725  86.6736  74.2742 0001715  80.7688 279.3639 13.22471139162595"},{"id":"61594","name":"ONEWEB-0015","type":"PAYLOAD","l1":"1 61594U 24188A   26203.02449301 -.00000007  00000-0 -54887-4 0  9999","l2":"2 61594  87.8886  14.1549 0001357  81.3582 278.7700 13.11414931 89027"},{"id":"61595","name":"ONEWEB-0687","type":"PAYLOAD","l1":"1 61595U 24188B   26202.85767139  .00000035  00000-0  56568-4 0  9999","l2":"2 61595  87.9149 358.9783 0001797  78.2588 281.8745 13.17647808 90460"},{"id":"61596","name":"ONEWEB-0688","type":"PAYLOAD","l1":"1 61596U 24188C   26203.34196766  .00000049  00000-0  92399-4 0  9994","l2":"2 61596  87.9148 358.8817 0000832  62.4166 297.7050 13.17647897 90523"},{"id":"61597","name":"ONEWEB-0689","type":"PAYLOAD","l1":"1 61597U 24188D   26203.43988083 -.00000185  00000-0 -55896-3 0  9999","l2":"2 61597  87.8901  14.0352 0001968  84.6132 275.5221 13.11418851 89077"},{"id":"61598","name":"ONEWEB-0690","type":"PAYLOAD","l1":"1 61598U 24188E   26202.99228852  .00000348  00000-0  94489-3 0  9991","l2":"2 61598  87.8897  14.1346 0001807 112.0935 248.0385 13.11419014 89196"},{"id":"61599","name":"ONEWEB-0691","type":"PAYLOAD","l1":"1 61599U 24188F   26202.98720255  .00000153  00000-0  39467-3 0  9994","l2":"2 61599  87.8910  14.0474 0001551  81.4101 278.7203 13.11418496 89040"},{"id":"61600","name":"ONEWEB-0692","type":"PAYLOAD","l1":"1 61600U 24188G   26203.00753854  .00000518  00000-0  14262-2 0  9992","l2":"2 61600  87.8890  14.1503 0002615  91.1088 269.0340 13.11417704 89033"},{"id":"61601","name":"ONEWEB-0693","type":"PAYLOAD","l1":"1 61601U 24188H   26202.44255504  .00000096  00000-0  21468-3 0  9997","l2":"2 61601  87.9146 359.0790 0001672 120.3846 239.7451 13.17648501 90392"},{"id":"61602","name":"ONEWEB-0695","type":"PAYLOAD","l1":"1 61602U 24188J   26203.44158449 -.00000089  00000-0 -28651-3 0  9994","l2":"2 61602  87.8889  14.0557 0002282  84.7756 275.3632 13.11418747 89088"},{"id":"61603","name":"ONEWEB-0697","type":"PAYLOAD","l1":"1 61603U 24188K   26203.01602411  .00000305  00000-0  82478-3 0  9997","l2":"2 61603  87.8890  14.1312 0002598  93.3813 266.7613 13.11415836 89013"},{"id":"61604","name":"ONEWEB-0698","type":"PAYLOAD","l1":"1 61604U 24188L   26202.99398705  .00000403  00000-0  11002-2 0  9995","l2":"2 61604  87.8886  14.1489 0002719 112.0630 248.0787 13.11418373 89031"},{"id":"61605","name":"ONEWEB-0699","type":"PAYLOAD","l1":"1 61605U 24188M   26203.49242152  .00000302  00000-0  82812-3 0  9992","l2":"2 61605  87.8823  29.2293 0002471  93.2234 266.9176 13.10376167 87939"},{"id":"61606","name":"ONEWEB-0700","type":"PAYLOAD","l1":"1 61606U 24188N   26203.26506010  .00000442  00000-0  12297-2 0  9998","l2":"2 61606  87.8840  29.1894 0002377  92.4427 267.6973 13.10374258 87892"},{"id":"61607","name":"ONEWEB-0701","type":"PAYLOAD","l1":"1 61607U 24188P   26203.05295209  .00000602  00000-0  16888-2 0  9999","l2":"2 61607  87.8821  29.3172 0002603  95.5937 264.5487 13.10370945 87878"},{"id":"61608","name":"ONEWEB-0702","type":"PAYLOAD","l1":"1 61608U 24188Q   26202.73456774 -.00000519  00000-0 -15010-2 0  9995","l2":"2 61608  87.8908  14.1129 0002885  88.6940 271.4519 13.11416326 89014"},{"id":"61609","name":"ONEWEB-0704","type":"PAYLOAD","l1":"1 61609U 24188R   26203.49921257  .00000591  00000-0  16570-2 0  9993","l2":"2 61609  87.8826  29.2187 0002830  83.5424 276.6025 13.10373848 87912"},{"id":"61610","name":"ONEWEB-0705","type":"PAYLOAD","l1":"1 61610U 24188S   26203.27523819  .00000718  00000-0  20214-2 0  9994","l2":"2 61610  87.8827  29.2694 0002517  68.7971 291.3425 13.10373115 80055"},{"id":"61611","name":"ONEWEB-0706","type":"PAYLOAD","l1":"1 61611U 24188T   26203.48902412  .00000256  00000-0  69714-3 0  9994","l2":"2 61611  87.8835  29.2301 0002230  81.1784 278.9596 13.10375288 88009"},{"id":"61612","name":"ONEWEB-0707","type":"PAYLOAD","l1":"1 61612U 24188U   26203.49581380  .00000479  00000-0  13359-2 0  9993","l2":"2 61612  87.8828  29.2242 0002348  83.1081 277.0314 13.10373885 87949"},{"id":"61613","name":"ONEWEB-0708","type":"PAYLOAD","l1":"1 61613U 24188V   26203.51448151  .00000562  00000-0  15725-2 0  9997","l2":"2 61613  87.8820  29.2355 0001883  68.0507 292.0820 13.10370394 87924"}]}