OBJECT_NAME,OBJECT_ID,EPOCH,MEAN_MOTION,ECCENTRICITY,INCLINATION,RA_OF_ASC_NODE,ARG_OF_PERICENTER,MEAN_ANOMALY,EPHEMERIS_TYPE,CLASSIFICATION_TYPE,NORAD_CAT_ID,ELEMENT_SET_NO,REV_AT_EPOCH,BSTAR,MEAN_MOTION_DOT,MEAN_MOTION_DDOT
ONEWEB-0721,2023-068R,2026-07-22T09:31:43.584672,13.22471139,.00017151,86.6736,74.2742,80.7688,279.3639,0,U,56725,999,16259,-.14826237E-3,-.47E-6,0
ONEWEB-0015,2024-188A,2026-07-22T00:35:16.196064,13.11414931,.00013566,87.8886,14.1549,81.3582,278.7700,0,U,61594,999,8902,-.54887423E-4,-.7E-7,0
ONEWEB-0687,2024-188B,2026-07-21T20:35:02.808096,13.17647808,.00017975,87.9149,358.9783,78.2588,281.8745,0,U,61595,999,9046,.5656814E-4,.35E-6,0
ONEWEB-0688,2024-188C,2026-07-22T08:12:26.005824,13.17647897,.00008319,87.9148,358.8817,62.4166,297.7050,0,U,61596,999,9052,.92398504E-4,.49E-6,0
ONEWEB-0689,2024-188D,2026-07-22T10:33:25.703712,13.11418851,.00019684,87.8901,14.0352,84.6132,275.5221,0,U,61597,999,8907,-.55896309E-3,-.185E-5,0
ONEWEB-0690,2024-188E,2026-07-21T23:48:53.728128,13.11419014,.00018073,87.8897,14.1346,112.0935,248.0385,0,U,61598,999,8919,.94489485E-3,.348E-5,0
ONEWEB-0691,2024-188F,2026-07-21T23:41:34.300320,13.11418496,.00015507,87.8910,14.0474,81.4101,278.7203,0,U,61599,999,8904,.39467095E-3,.153E-5,0
ONEWEB-0692,2024-188G,2026-07-22T00:10:51.329856,13.11417704,.00026149,87.8890,14.1503,91.1088,269.0340,0,U,61600,999,8903,.14262472E-2,.518E-5,0
ONEWEB-0693,2024-188H,2026-07-21T10:37:16.755456,13.17648501,.00016719,87.9146,359.0790,120.3846,239.7451,0,U,61601,999,9039,.21467728E-3,.96E-6,0
ONEWEB-0695,2024-188J,2026-07-22T10:35:52.899936,13.11418747,.00022818,87.8889,14.0557,84.7756,275.3632,0,U,61602,999,8908,-.28651159E-3,-.89E-6,0
ONEWEB-0697,2024-188K,2026-07-22T00:23:04.483104,13.11415836,.00025976,87.8890,14.1312,93.3813,266.7613,0,U,61603,999,8901,.82478485E-3,.305E-5,0
ONEWEB-0698,2024-188L,2026-07-21T23:51:20.481120,13.11418373,.00027185,87.8886,14.1489,112.0630,248.0787,0,U,61604,999,8903,.1100213E-2,.403E-5,0
ONEWEB-0699,2024-188M,2026-07-22T11:49:05.219328,13.10376167,.00024711,87.8823,29.2293,93.2234,266.9176,0,U,61605,999,8793,.82812185E-3,.302E-5,0
ONEWEB-0700,2024-188N,2026-07-22T06:21:41.192640,13.10374258,.00023771,87.8840,29.1894,92.4427,267.6973,0,U,61606,999,8789,.12297303E-2,.442E-5,0
ONEWEB-0701,2024-188P,2026-07-22T01:16:15.060576,13.10370945,.00026033,87.8821,29.3172,95.5937,264.5487,0,U,61607,999,8787,.16887889E-2,.602E-5,0
ONEWEB-0702,2024-188Q,2026-07-21T17:37:46.652736,13.11416326,.00028846,87.8908,14.1129,88.6940,271.4519,0,U,61608,999,8901,-.15010254E-2,-.519E-5,0
ONEWEB-0704,2024-188R,2026-07-22T11:58:51.966048,13.10373848,.00028302,87.8826,29.2187,83.5424,276.6025,0,U,61609,999,8791,.16569545E-2,.591E-5,0
ONEWEB-0705,2024-188S,2026-07-22T06:36:20.579616,13.10373115,.00025174,87.8827,29.2694,68.7971,291.3425,0,U,61610,999,8005,.20214404E-2,.718E-5,0
ONEWEB-0706,2024-188T,2026-07-22T11:44:11.683968,13.10375288,.00022304,87.8835,29.2301,81.1784,278.9596,0,U,61611,999,8800,.69713817E-3,.256E-5,0
ONEWEB-0707,2024-188U,2026-07-22T11:53:58.312320,13.10373885,.00023483,87.8828,29.2242,83.1081,277.0314,0,U,61612,999,8794,.13359148E-2,.479E-5,0
ONEWEB-0708,2024-188V,2026-07-22T12:20:51.202464,13.10370394,.0001883,87.8820,29.2355,68.0507,292.0820,0,U,61613,999,8792,.15724926E-2,.562E-5,0
